SL-4 R/B                
1 39679U 14021B   26018.54305245  .00008922  00000+0  21137-3 0  9994
2 39679  51.6060 221.6117 0099256 279.8940  79.0850 15.37583270648552
ALOS-2                  
1 39766U 14029A   26018.60291740  .00000143  00000+0  26067-4 0  9995
2 39766  97.9207 117.9212 0001308  99.4615 260.6745 14.79456419629463
YAOGAN-29               
1 41038U 15069A   26018.59416661  .00000222  00000+0  34054-4 0  9997
2 41038  98.0192  46.8801 0002457 118.9733 241.1727 14.82927398548457
ASTRO-H (HITOMI)        
1 41337U 16012A   26018.52198447  .00002438  00000+0  14214-3 0  9996
2 41337  31.0006 320.1995 0009760 189.8865 170.1582 15.09610254544646
HXMT (HUIYAN)           
1 42758U 17034A   26018.60934826  .00005757  00000+0  29591-3 0  9998
2 42758  43.0150 294.9575 0033449 277.6587  82.0462 15.16745189474933
CZ-2C R/B               
1 43521U 18054D   26018.09559653  .00174022  00000+0  72438-3 0  9994
2 43521  35.1332 292.6765 0011255 168.8119 191.2869 15.84135592420802
SAOCOM 1A               
1 43641U 18076A   26018.60017400  .00000277  00000+0  41372-4 0  9991
2 43641  97.8849 207.4865 0001505  87.1709 272.9676 14.82150521393946
H-2A R/B                
1 43682U 18084L   26018.57806889  .00018539  00000+0  47798-3 0  9995
2 43682  98.8759 225.3420 0025979 196.1483 163.8933 15.38923584398060
SAOCOM 1B               
1 46265U 20059A   26018.63137218  .00000620  00000+0  84389-4 0  9990
2 46265  97.8847 206.6165 0001400  89.4891 270.6482 14.82153693291337
CSS (TIANHE)            
1 48274U 21035A   26018.59108865  .00019643  00000+0  23316-3 0  9995
2 48274  41.4661 152.7241 0011045 310.5439  49.4438 15.60649246269784
COSMOS 2550             
1 48865U 21056A   26018.63353668 -.00000202  00000+0 -31904-6 0  9990
2 48865  67.1415 192.3396 0008340 270.3414  89.6785 15.33834098255780
CZ-2C R/B               
1 52794U 22058K   26018.24164496  .00023504  00000+0  39440-3 0  9993
2 52794  50.1874 217.0991 0042814 348.4779  11.5206 15.50611391202296
