CCSDS_OMM_VERS = 2.0
CREATION_DATE  = 
ORIGINATOR     = 

OBJECT_NAME    = SL-4 R/B
OBJECT_ID      = 2014-021B
CENTER_NAME    = EARTH
REF_FRAME      = TEME
TIME_SYSTEM    = UTC
MEAN_ELEMENT_THEORY = SGP/SGP4

EPOCH          = 2026-01-18T13:01:59.731680
MEAN_MOTION    = 15.37583270
ECCENTRICITY   = .00992568
INCLINATION    = 51.6060
RA_OF_ASC_NODE = 221.6117
ARG_OF_PERICENTER = 279.8940
MEAN_ANOMALY   = 79.0850

EPHEMERIS_TYPE = 0
CLASSIFICATION_TYPE = U
NORAD_CAT_ID   = 39679
ELEMENT_SET_NO = 999
REV_AT_EPOCH   = 64855
BSTAR          = .21137365E-3
MEAN_MOTION_DOT = .8922E-4
MEAN_MOTION_DDOT = 0

CCSDS_OMM_VERS = 2.0
CREATION_DATE  = 
ORIGINATOR     = 

OBJECT_NAME    = ALOS-2
OBJECT_ID      = 2014-029A
CENTER_NAME    = EARTH
REF_FRAME      = TEME
TIME_SYSTEM    = UTC
MEAN_ELEMENT_THEORY = SGP/SGP4

EPOCH          = 2026-01-18T14:28:12.063360
MEAN_MOTION    = 14.79456419
ECCENTRICITY   = .00013086
INCLINATION    = 97.9207
RA_OF_ASC_NODE = 117.9212
ARG_OF_PERICENTER = 99.4615
MEAN_ANOMALY   = 260.6745

EPHEMERIS_TYPE = 0
CLASSIFICATION_TYPE = U
NORAD_CAT_ID   = 39766
ELEMENT_SET_NO = 999
REV_AT_EPOCH   = 62946
BSTAR          = .26067209E-4
MEAN_MOTION_DOT = .143E-5
MEAN_MOTION_DDOT = 0

CCSDS_OMM_VERS = 2.0
CREATION_DATE  = 
ORIGINATOR     = 

OBJECT_NAME    = YAOGAN-29
OBJECT_ID      = 2015-069A
CENTER_NAME    = EARTH
REF_FRAME      = TEME
TIME_SYSTEM    = UTC
MEAN_ELEMENT_THEORY = SGP/SGP4

EPOCH          = 2026-01-18T14:15:35.995104
MEAN_MOTION    = 14.82927398
ECCENTRICITY   = .00024577
INCLINATION    = 98.0192
RA_OF_ASC_NODE = 46.8801
ARG_OF_PERICENTER = 118.9733
MEAN_ANOMALY   = 241.1727

EPHEMERIS_TYPE = 0
CLASSIFICATION_TYPE = U
NORAD_CAT_ID   = 41038
ELEMENT_SET_NO = 999
REV_AT_EPOCH   = 54845
BSTAR          = .34053715E-4
MEAN_MOTION_DOT = .222E-5
MEAN_MOTION_DDOT = 0

CCSDS_OMM_VERS = 2.0
CREATION_DATE  = 
ORIGINATOR     = 

OBJECT_NAME    = ASTRO-H (HITOMI)
OBJECT_ID      = 2016-012A
CENTER_NAME    = EARTH
REF_FRAME      = TEME
TIME_SYSTEM    = UTC
MEAN_ELEMENT_THEORY = SGP/SGP4

EPOCH          = 2026-01-18T12:31:39.458208
MEAN_MOTION    = 15.09610254
ECCENTRICITY   = .00097603
INCLINATION    = 31.0006
RA_OF_ASC_NODE = 320.1995
ARG_OF_PERICENTER = 189.8865
MEAN_ANOMALY   = 170.1582

EPHEMERIS_TYPE = 0
CLASSIFICATION_TYPE = U
NORAD_CAT_ID   = 41337
ELEMENT_SET_NO = 999
REV_AT_EPOCH   = 54464
BSTAR          = .14213573E-3
MEAN_MOTION_DOT = .2438E-4
MEAN_MOTION_DDOT = 0

CCSDS_OMM_VERS = 2.0
CREATION_DATE  = 
ORIGINATOR     = 

OBJECT_NAME    = HXMT (HUIYAN)
OBJECT_ID      = 2017-034A
CENTER_NAME    = EARTH
REF_FRAME      = TEME
TIME_SYSTEM    = UTC
MEAN_ELEMENT_THEORY = SGP/SGP4

EPOCH          = 2026-01-18T14:37:27.689664
MEAN_MOTION    = 15.16745189
ECCENTRICITY   = .00334493
INCLINATION    = 43.0150
RA_OF_ASC_NODE = 294.9575
ARG_OF_PERICENTER = 277.6587
MEAN_ANOMALY   = 82.0462

EPHEMERIS_TYPE = 0
CLASSIFICATION_TYPE = U
NORAD_CAT_ID   = 42758
ELEMENT_SET_NO = 999
REV_AT_EPOCH   = 47493
BSTAR          = .29590834E-3
MEAN_MOTION_DOT = .5757E-4
MEAN_MOTION_DDOT = 0

CCSDS_OMM_VERS = 2.0
CREATION_DATE  = 
ORIGINATOR     = 

OBJECT_NAME    = CZ-2C R/B
OBJECT_ID      = 2018-054D
CENTER_NAME    = EARTH
REF_FRAME      = TEME
TIME_SYSTEM    = UTC
MEAN_ELEMENT_THEORY = SGP/SGP4

EPOCH          = 2026-01-18T02:17:39.540192
MEAN_MOTION    = 15.84135592
ECCENTRICITY   = .00112556
INCLINATION    = 35.1332
RA_OF_ASC_NODE = 292.6765
ARG_OF_PERICENTER = 168.8119
MEAN_ANOMALY   = 191.2869

EPHEMERIS_TYPE = 0
CLASSIFICATION_TYPE = U
NORAD_CAT_ID   = 43521
ELEMENT_SET_NO = 999
REV_AT_EPOCH   = 42080
BSTAR          = .72437909E-3
MEAN_MOTION_DOT = .174022E-2
MEAN_MOTION_DDOT = 0

CCSDS_OMM_VERS = 2.0
CREATION_DATE  = 
ORIGINATOR     = 

OBJECT_NAME    = SAOCOM 1A
OBJECT_ID      = 2018-076A
CENTER_NAME    = EARTH
REF_FRAME      = TEME
TIME_SYSTEM    = UTC
MEAN_ELEMENT_THEORY = SGP/SGP4

EPOCH          = 2026-01-18T14:24:15.033600
MEAN_MOTION    = 14.82150521
ECCENTRICITY   = .00015054
INCLINATION    = 97.8849
RA_OF_ASC_NODE = 207.4865
ARG_OF_PERICENTER = 87.1709
MEAN_ANOMALY   = 272.9676

EPHEMERIS_TYPE = 0
CLASSIFICATION_TYPE = U
NORAD_CAT_ID   = 43641
ELEMENT_SET_NO = 999
REV_AT_EPOCH   = 39394
BSTAR          = .41371935E-4
MEAN_MOTION_DOT = .277E-5
MEAN_MOTION_DDOT = 0

CCSDS_OMM_VERS = 2.0
CREATION_DATE  = 
ORIGINATOR     = 

OBJECT_NAME    = H-2A R/B
OBJECT_ID      = 2018-084L
CENTER_NAME    = EARTH
REF_FRAME      = TEME
TIME_SYSTEM    = UTC
MEAN_ELEMENT_THEORY = SGP/SGP4

EPOCH          = 2026-01-18T13:52:25.152096
MEAN_MOTION    = 15.38923584
ECCENTRICITY   = .00259795
INCLINATION    = 98.8759
RA_OF_ASC_NODE = 225.3420
ARG_OF_PERICENTER = 196.1483
MEAN_ANOMALY   = 163.8933

EPHEMERIS_TYPE = 0
CLASSIFICATION_TYPE = U
NORAD_CAT_ID   = 43682
ELEMENT_SET_NO = 999
REV_AT_EPOCH   = 39806
BSTAR          = .47798435E-3
MEAN_MOTION_DOT = .18539E-3
MEAN_MOTION_DDOT = 0

CCSDS_OMM_VERS = 2.0
CREATION_DATE  = 
ORIGINATOR     = 

OBJECT_NAME    = SAOCOM 1B
OBJECT_ID      = 2020-059A
CENTER_NAME    = EARTH
REF_FRAME      = TEME
TIME_SYSTEM    = UTC
MEAN_ELEMENT_THEORY = SGP/SGP4

EPOCH          = 2026-01-18T15:09:10.556352
MEAN_MOTION    = 14.82153693
ECCENTRICITY   = .00014003
INCLINATION    = 97.8847
RA_OF_ASC_NODE = 206.6165
ARG_OF_PERICENTER = 89.4891
MEAN_ANOMALY   = 270.6482

EPHEMERIS_TYPE = 0
CLASSIFICATION_TYPE = U
NORAD_CAT_ID   = 46265
ELEMENT_SET_NO = 999
REV_AT_EPOCH   = 29133
BSTAR          = .84388619E-4
MEAN_MOTION_DOT = .62E-5
MEAN_MOTION_DDOT = 0

CCSDS_OMM_VERS = 2.0
CREATION_DATE  = 
ORIGINATOR     = 

OBJECT_NAME    = CSS (TIANHE)
OBJECT_ID      = 2021-035A
CENTER_NAME    = EARTH
REF_FRAME      = TEME
TIME_SYSTEM    = UTC
MEAN_ELEMENT_THEORY = SGP/SGP4

EPOCH          = 2026-01-18T14:11:10.059360
MEAN_MOTION    = 15.60649246
ECCENTRICITY   = .00110458
INCLINATION    = 41.4661
RA_OF_ASC_NODE = 152.7241
ARG_OF_PERICENTER = 310.5439
MEAN_ANOMALY   = 49.4438

EPHEMERIS_TYPE = 0
CLASSIFICATION_TYPE = U
NORAD_CAT_ID   = 48274
ELEMENT_SET_NO = 999
REV_AT_EPOCH   = 26978
BSTAR          = .23315616E-3
MEAN_MOTION_DOT = .19643E-3
MEAN_MOTION_DDOT = 0

CCSDS_OMM_VERS = 2.0
CREATION_DATE  = 
ORIGINATOR     = 

OBJECT_NAME    = COSMOS 2550
OBJECT_ID      = 2021-056A
CENTER_NAME    = EARTH
REF_FRAME      = TEME
TIME_SYSTEM    = UTC
MEAN_ELEMENT_THEORY = SGP/SGP4

EPOCH          = 2026-01-18T15:12:17.569152
MEAN_MOTION    = 15.33834098
ECCENTRICITY   = .00083409
INCLINATION    = 67.1415
RA_OF_ASC_NODE = 192.3396
ARG_OF_PERICENTER = 270.3414
MEAN_ANOMALY   = 89.6785

EPHEMERIS_TYPE = 0
CLASSIFICATION_TYPE = U
NORAD_CAT_ID   = 48865
ELEMENT_SET_NO = 999
REV_AT_EPOCH   = 25578
BSTAR          = -.319041E-6
MEAN_MOTION_DOT = -.202E-5
MEAN_MOTION_DDOT = 0

CCSDS_OMM_VERS = 2.0
CREATION_DATE  = 
ORIGINATOR     = 

OBJECT_NAME    = CZ-2C R/B
OBJECT_ID      = 2022-058K
CENTER_NAME    = EARTH
REF_FRAME      = TEME
TIME_SYSTEM    = UTC
MEAN_ELEMENT_THEORY = SGP/SGP4

EPOCH          = 2026-01-18T05:47:58.124544
MEAN_MOTION    = 15.50611391
ECCENTRICITY   = .00428145
INCLINATION    = 50.1874
RA_OF_ASC_NODE = 217.0991
ARG_OF_PERICENTER = 348.4779
MEAN_ANOMALY   = 11.5206

EPHEMERIS_TYPE = 0
CLASSIFICATION_TYPE = U
NORAD_CAT_ID   = 52794
ELEMENT_SET_NO = 999
REV_AT_EPOCH   = 20229
BSTAR          = .39440217E-3
MEAN_MOTION_DOT = .23504E-3
MEAN_MOTION_DDOT = 0

